{"type": "FeatureCollection", "features": [ {"type": "Feature", "properties": {"norad_id": 40664, "name": "SKY MEXICO-1", "group": "intelsat", "lat": 0.03558682965078814, "lon": 50.18924488277633, "alt_km": 35796.06054151415, "timestamp": "2025-12-06T03:35:01.466661+00:00", "meta": {"OBJECT_NAME": "SKY MEXICO-1", "OBJECT_ID": "2015-026B", "EPOCH": "2025-12-05T03:02:57.525216", "MEAN_MOTION": 1.00270045, "ECCENTRICITY": 0.00028355, "INCLINATION": 0.0161, "RA_OF_ASC_NODE": 357.4059, "ARG_OF_PERICENTER": 271.3142, "MEAN_ANOMALY": 132.4452, "EPHEMERIS_TYPE": 0, "CLASSIFICATION_TYPE": "U", "NORAD_CAT_ID": 40664, "ELEMENT_SET_NO": 999, "REV_AT_EPOCH": 3850, "BSTAR": 0, "MEAN_MOTION_DOT": -2.22e-06, "MEAN_MOTION_DDOT": 0}, "tle": {"line1": "1 40664U 15026B   25339.12705469 -.00000222  00000+0  00000+0 0  9995", "line2": "2 40664   0.0161 357.4059 0002835 271.3142 132.4452  1.00270045 38507"}}, "geometry": {"type": "Point", "coordinates": [50.18924488277633, 0.03558682965078814]}}, {"type": "Feature", "properties": {"norad_id": 40874, "name": "INTELSAT 34 (IS-34)", "group": "intelsat", "lat": 0.03650962713985686, "lon": 73.42041751154342, "alt_km": 35787.3984330899, "timestamp": "2025-12-06T03:35:01.466673+00:00", "meta": {"OBJECT_NAME": "INTELSAT 34 (IS-34)", "OBJECT_ID": "2015-039A", "EPOCH": "2025-12-04T23:44:07.814112", "MEAN_MOTION": 1.00269733, "ECCENTRICITY": 4.423e-05, "INCLINATION": 0.0127, "RA_OF_ASC_NODE": 327.7412, "ARG_OF_PERICENTER": 214.8325, "MEAN_ANOMALY": 192.0071, "EPHEMERIS_TYPE": 0, "CLASSIFICATION_TYPE": "U", "NORAD_CAT_ID": 40874, "ELEMENT_SET_NO": 999, "REV_AT_EPOCH": 3767, "BSTAR": 0, "MEAN_MOTION_DOT": -2.72e-06, "MEAN_MOTION_DDOT": 0}, "tle": {"line1": "1 40874U 15039A   25338.98897933 -.00000272  00000+0  00000+0 0  9998", "line2": "2 40874   0.0127 327.7412 0000442 214.8325 192.0071  1.00269733 37670"}}, "geometry": {"type": "Point", "coordinates": [73.42041751154342, 0.03650962713985686]}}, {"type": "Feature", "properties": {"norad_id": 41581, "name": "INTELSAT 31 (IS-31)", "group": "intelsat", "lat": 0.0287764636369121, "lon": 33.87486901694023, "alt_km": 35794.96589987233, "timestamp": "2025-12-06T03:35:01.466686+00:00", "meta": {"OBJECT_NAME": "INTELSAT 31 (IS-31)", "OBJECT_ID": "2016-035A", "EPOCH": "2025-12-04T23:32:53.890656", "MEAN_MOTION": 1.00268487, "ECCENTRICITY": 0.00018908, "INCLINATION": 0.0185, "RA_OF_ASC_NODE": 272.2793, "ARG_OF_PERICENTER": 308.6943, "MEAN_ANOMALY": 111.243, "EPHEMERIS_TYPE": 0, "CLASSIFICATION_TYPE": "U", "NORAD_CAT_ID": 41581, "ELEMENT_SET_NO": 999, "REV_AT_EPOCH": 3473, "BSTAR": 0, "MEAN_MOTION_DOT": -1.37e-06, "MEAN_MOTION_DDOT": 0}, "tle": {"line1": "1 41581U 16035A   25338.98117929 -.00000137  00000+0  00000+0 0  9991", "line2": "2 41581   0.0185 272.2793 0001890 308.6943 111.2430  1.00268487 34733"}}, "geometry": {"type": "Point", "coordinates": [33.87486901694023, 0.0287764636369121]}}, {"type": "Feature", "properties": {"norad_id": 41747, "name": "INTELSAT 36 (IS-36)", "group": "intelsat", "lat": -0.01743103858157788, "lon": -162.52200863662443, "alt_km": 35786.05055070862, "timestamp": "2025-12-06T03:35:01.466698+00:00", "meta": {"OBJECT_NAME": "INTELSAT 36 (IS-36)", "OBJECT_ID": "2016-053A", "EPOCH": "2025-12-05T02:02:18.337344", "MEAN_MOTION": 1.00286022, "ECCENTRICITY": 0.00024479, "INCLINATION": 0.0121, "RA_OF_ASC_NODE": 359.9688, "ARG_OF_PERICENTER": 310.5924, "MEAN_ANOMALY": 222.6723, "EPHEMERIS_TYPE": 0, "CLASSIFICATION_TYPE": "U", "NORAD_CAT_ID": 41747, "ELEMENT_SET_NO": 999, "REV_AT_EPOCH": 3400, "BSTAR": 0, "MEAN_MOTION_DOT": -1.5e-07, "MEAN_MOTION_DDOT": 0}, "tle": {"line1": "1 41747U 16053A   25339.08493446 -.00000015  00000+0  00000+0 0  9993", "line2": "2 41747   0.0121 359.9688 0002447 310.5924 222.6723  1.00286022 34000"}}, "geometry": {"type": "Point", "coordinates": [-162.52200863662443, -0.01743103858157788]}}, {"type": "Feature", "properties": {"norad_id": 41945, "name": "INTELSAT 32E (IS-32E)", "group": "intelsat", "lat": 0.025952305239578786, "lon": 85.74849451732086, "alt_km": 35787.53228108436, "timestamp": "2025-12-06T03:35:01.466710+00:00", "meta": {"OBJECT_NAME": "INTELSAT 32E (IS-32E)", "OBJECT_ID": "2017-007B", "EPOCH": "2025-12-04T23:47:37.480128", "MEAN_MOTION": 1.00268908, "ECCENTRICITY": 3.495e-05, "INCLINATION": 0.0354, "RA_OF_ASC_NODE": 76.4553, "ARG_OF_PERICENTER": 258.238, "MEAN_ANOMALY": 53.0863, "EPHEMERIS_TYPE": 0, "CLASSIFICATION_TYPE": "U", "NORAD_CAT_ID": 41945, "ELEMENT_SET_NO": 999, "REV_AT_EPOCH": 3227, "BSTAR": 0, "MEAN_MOTION_DOT": -2.56e-06, "MEAN_MOTION_DDOT": 0}, "tle": {"line1": "1 41945U 17007B   25338.99140602 -.00000256  00000+0  00000+0 0  9992", "line2": "2 41945   0.0354  76.4553 0000349 258.2380  53.0863  1.00268908 32274"}}, "geometry": {"type": "Point", "coordinates": [85.74849451732086, 0.025952305239578786]}}, {"type": "Feature", "properties": {"norad_id": 42818, "name": "INTELSAT 35E (IS-35E)", "group": "intelsat", "lat": 0.03730094461510003, "lon": 94.44491274126767, "alt_km": 35796.48387087569, "timestamp": "2025-12-06T03:35:01.466722+00:00", "meta": {"OBJECT_NAME": "INTELSAT 35E (IS-35E)", "OBJECT_ID": "2017-041A", "EPOCH": "2025-12-04T23:50:07.239840", "MEAN_MOTION": 1.00270444, "ECCENTRICITY": 0.00024364, "INCLINATION": 0.0171, "RA_OF_ASC_NODE": 338.3796, "ARG_OF_PERICENTER": 280.2111, "MEAN_ANOMALY": 138.516, "EPHEMERIS_TYPE": 0, "CLASSIFICATION_TYPE": "U", "NORAD_CAT_ID": 42818, "ELEMENT_SET_NO": 999, "REV_AT_EPOCH": 3086, "BSTAR": 0, "MEAN_MOTION_DOT": -2.25e-06, "MEAN_MOTION_DDOT": 0}, "tle": {"line1": "1 42818U 17041A   25338.99313935 -.00000225  00000+0  00000+0 0  9997", "line2": "2 42818   0.0171 338.3796 0002436 280.2111 138.5160  1.00270444 30866"}}, "geometry": {"type": "Point", "coordinates": [94.44491274126767, 0.03730094461510003]}}, {"type": "Feature", "properties": {"norad_id": 42950, "name": "INTELSAT 37E (IS-37E)", "group": "intelsat", "lat": 0.020774082310031167, "lon": 110.91456195931791, "alt_km": 35797.9285936145, "timestamp": "2025-12-06T03:35:01.466735+00:00", "meta": {"OBJECT_NAME": "INTELSAT 37E (IS-37E)", "OBJECT_ID": "2017-059A", "EPOCH": "2025-12-05T03:20:18.361824", "MEAN_MOTION": 1.00270825, "ECCENTRICITY": 0.00035102, "INCLINATION": 0.0019, "RA_OF_ASC_NODE": 0.7049, "ARG_OF_PERICENTER": 251.0809, "MEAN_ANOMALY": 214.4959, "EPHEMERIS_TYPE": 0, "CLASSIFICATION_TYPE": "U", "NORAD_CAT_ID": 42950, "ELEMENT_SET_NO": 999, "REV_AT_EPOCH": 3012, "BSTAR": 0, "MEAN_MOTION_DOT": -1.28e-06, "MEAN_MOTION_DDOT": 0}, "tle": {"line1": "1 42950U 17059A   25339.13910141 -.00000128  00000+0  00000+0 0  9994", "line2": "2 42950   0.0019   0.7049 0003510 251.0809 214.4959  1.00270825 30121"}}, "geometry": {"type": "Point", "coordinates": [110.91456195931791, 0.020774082310031167]}}, {"type": "Feature", "properties": {"norad_id": 43632, "name": "AZERSPACE 2 (IS-38)", "group": "intelsat", "lat": -0.016660156940670433, "lon": 174.03029984791542, "alt_km": 35787.31395098042, "timestamp": "2025-12-06T03:35:01.466747+00:00", "meta": {"OBJECT_NAME": "AZERSPACE 2 (IS-38)", "OBJECT_ID": "2018-074A", "EPOCH": "2025-12-05T00:42:09.646848", "MEAN_MOTION": 1.00270458, "ECCENTRICITY": 0.00016586, "INCLINATION": 0.0165, "RA_OF_ASC_NODE": 329.2688, "ARG_OF_PERICENTER": 303.0839, "MEAN_ANOMALY": 217.3943, "EPHEMERIS_TYPE": 0, "CLASSIFICATION_TYPE": "U", "NORAD_CAT_ID": 43632, "ELEMENT_SET_NO": 999, "REV_AT_EPOCH": 2650, "BSTAR": 0, "MEAN_MOTION_DOT": 1.49e-06, "MEAN_MOTION_DDOT": 0}, "tle": {"line1": "1 43632U 18074A   25339.02927832  .00000149  00000+0  00000+0 0  9995", "line2": "2 43632   0.0165 329.2688 0001658 303.0839 217.3943  1.00270458 26505"}}, "geometry": {"type": "Point", "coordinates": [174.03029984791542, -0.016660156940670433]}}, {"type": "Feature", "properties": {"norad_id": 43633, "name": "HORIZONS-3E", "group": "intelsat", "lat": 0.003463347017564152, "lon": -62.03972554206779, "alt_km": 35782.12471843441, "timestamp": "2025-12-06T03:35:01.466759+00:00", "meta": {"OBJECT_NAME": "HORIZONS-3E", "OBJECT_ID": "2018-074B", "EPOCH": "2025-12-05T02:31:00.587424", "MEAN_MOTION": 1.00269387, "ECCENTRICITY": 0.00011562, "INCLINATION": 0.0395, "RA_OF_ASC_NODE": 193.0784, "ARG_OF_PERICENTER": 85.1125, "MEAN_ANOMALY": 2.7538, "EPHEMERIS_TYPE": 0, "CLASSIFICATION_TYPE": "U", "NORAD_CAT_ID": 43633, "ELEMENT_SET_NO": 999, "REV_AT_EPOCH": 2639, "BSTAR": 0, "MEAN_MOTION_DOT": -1.8e-07, "MEAN_MOTION_DDOT": 0}, "tle": {"line1": "1 43633U 18074B   25339.10486791 -.00000018  00000+0  00000+0 0  9995", "line2": "2 43633   0.0395 193.0784 0001156  85.1125   2.7538  1.00269387 26396"}}, "geometry": {"type": "Point", "coordinates": [-62.03972554206779, 0.003463347017564152]}}, {"type": "Feature", "properties": {"norad_id": 44333, "name": "AT&T T-16", "group": "intelsat", "lat": 0.0006805235953949847, "lon": 28.068413286904704, "alt_km": 35788.648439644465, "timestamp": "2025-12-06T03:35:01.466771+00:00", "meta": {"OBJECT_NAME": "AT&T T-16", "OBJECT_ID": "2019-034A", "EPOCH": "2025-12-04T23:31:09.058080", "MEAN_MOTION": 1.00271015, "ECCENTRICITY": 6.555e-05, "INCLINATION": 0.032, "RA_OF_ASC_NODE": 71.7135, "ARG_OF_PERICENTER": 104.2001, "MEAN_ANOMALY": 150.0544, "EPHEMERIS_TYPE": 0, "CLASSIFICATION_TYPE": "U", "NORAD_CAT_ID": 44333, "ELEMENT_SET_NO": 999, "REV_AT_EPOCH": 2368, "BSTAR": 0, "MEAN_MOTION_DOT": -1.02e-06, "MEAN_MOTION_DDOT": 0}, "tle": {"line1": "1 44333U 19034A   25338.97996595 -.00000102  00000+0  00000+0 0  9996", "line2": "2 44333   0.0320  71.7135 0000655 104.2001 150.0544  1.00271015 23687"}}, "geometry": {"type": "Point", "coordinates": [28.068413286904704, 0.0006805235953949847]}}]}